{
  "norad_id": 65132,
  "name": "KUIPER-00081",
  "history": [
    {
      "epoch": "2026-03-28T23:13:51.576384",
      "apogee_km": 630.2683734300645,
      "perigee_km": 628.909855645501,
      "latitude_deg": -44.808186259016466,
      "longitude_deg": 66.12397376005538,
      "semi_major_axis_km": 7007.726114537782,
      "eccentricity": 9.693e-05,
      "inclination_deg": 51.9003,
      "raan_deg": 62.8236,
      "arg_perigee_deg": 85.5522,
      "mean_anomaly_deg": 274.5551,
      "mean_motion_rev_day": 14.79916057
    },
    {
      "epoch": "2026-03-29T04:05:35.458656",
      "apogee_km": 630.260191060268,
      "perigee_km": 628.8964896550351,
      "latitude_deg": 47.19600604084522,
      "longitude_deg": 85.57273183995858,
      "semi_major_axis_km": 7007.715340357651,
      "eccentricity": 9.73e-05,
      "inclination_deg": 51.9003,
      "raan_deg": 61.9277,
      "arg_perigee_deg": 86.1096,
      "mean_anomaly_deg": 273.9977,
      "mean_motion_rev_day": 14.7991947
    }
  ]
}